[{"OBJECT_NAME":"STARLINK-31589","OBJECT_ID":"2024-084A","EPOCH":"2026-03-09T22:35:54.031776","MEAN_MOTION":15.27575395,"ECCENTRICITY":5.285e-5,"INCLINATION":42.9979,"RA_OF_ASC_NODE":40.2098,"ARG_OF_PERICENTER":106.1445,"MEAN_ANOMALY":253.9465,"EPHEMERIS_TYPE":0,"CLASSIFICATION_TYPE":"U","NORAD_CAT_ID":59654,"ELEMENT_SET_NO":999,"REV_AT_EPOCH":10443,"BSTAR":4.8923224e-5,"MEAN_MOTION_DOT":1.085e-5,"MEAN_MOTION_DDOT":0},{"OBJECT_NAME":"ELECTRON KICK STAGE R\/B","OBJECT_ID":"2024-077D","EPOCH":"2026-03-09T23:22:03.772128","MEAN_MOTION":14.57371822,"ECCENTRICITY":0.03475139,"INCLINATION":97.3266,"RA_OF_ASC_NODE":78.5056,"ARG_OF_PERICENTER":202.0113,"MEAN_ANOMALY":156.5853,"EPHEMERIS_TYPE":0,"CLASSIFICATION_TYPE":"U","NORAD_CAT_ID":59590,"ELEMENT_SET_NO":999,"REV_AT_EPOCH":9944,"BSTAR":0.00037103128,"MEAN_MOTION_DOT":3.845e-5,"MEAN_MOTION_DDOT":0}]
